OBJECT_NAME,OBJECT_ID,EPOCH,MEAN_MOTION,ECCENTRICITY,INCLINATION,RA_OF_ASC_NODE,ARG_OF_PERICENTER,MEAN_ANOMALY,EPHEMERIS_TYPE,CLASSIFICATION_TYPE,NORAD_CAT_ID,ELEMENT_SET_NO,REV_AT_EPOCH,BSTAR,MEAN_MOTION_DOT,MEAN_MOTION_DDOT
DMSP 5D-3 F16 (USA 172),2003-048A,2026-07-15T04:21:18.866304,14.14484823,.0008092,98.9897,220.1940,71.1866,16.5134,0,U,28054,999,17344,-.40141E-5,-.53E-6,0
METEOSAT-9 (MSG-2),2005-049B,2026-07-14T23:03:54.397728,1.00271858,.0002163,9.4224,53.8894,356.2461,274.3154,0,U,28912,999,727,0,.11E-5,0
DMSP 5D-3 F17 (USA 191),2006-050A,2026-07-15T04:06:42.790176,14.14996220,.0009717,98.7387,202.1696,342.9585,17.1261,0,U,29522,999,1638,.66506E-5,-.31E-6,0
FENGYUN 3A,2008-026A,2026-07-14T19:37:36.844320,14.19576476,.0009673,98.6887,136.1349,52.8286,307.3772,0,U,32958,999,93932,.29303896E-4,.18E-6,0
GOES 14,2009-033A,2026-07-14T22:57:14.922144,1.00098148,.0001898,1.7592,82.6948,40.4291,279.2189,0,U,35491,999,686,0,-.368E-5,0
DMSP 5D-3 F18 (USA 210),2009-057A,2026-07-15T05:09:51.982272,14.14911595,.0011228,98.9056,176.9259,165.4088,194.7411,0,U,35951,999,86355,.10261E-3,.154E-5,0
EWS-G2 (GOES 15),2010-008A,2026-07-15T04:42:21.598848,1.00268546,.0005237,1.3526,82.4596,54.0479,290.4397,0,U,36411,999,5991,0,.12E-6,0
COMS 1,2010-032A,2026-07-15T01:12:53.092800,0.99167988,.0011292,4.8746,75.0193,14.6864,184.0547,0,U,36744,999,5136,0,-.257E-5,0
FENGYUN 3B,2010-059A,2026-07-15T05:47:20.284800,14.14846512,.0023171,98.9610,242.3723,106.3805,333.1828,0,U,37214,999,81139,-.8355E-4,-.207E-5,0
SUOMI NPP,2011-061A,2026-07-15T04:22:46.893216,14.19522541,.0000745,98.7956,136.8682,213.9978,146.1150,0,U,37849,999,76241,.19901E-4,-.2E-7,0
METEOSAT-10 (MSG-3),2012-035B,2026-07-14T21:57:38.693088,1.00270754,.0001139,4.7354,60.8821,16.6212,184.7243,0,U,38552,999,5113,0,-.19E-6,0
METOP-B,2012-049A,2026-07-15T03:14:05.939808,14.21446389,.0001087,98.6490,247.0743,255.8699,104.2358,0,U,38771,999,71723,.41827E-4,.48E-6,0
INSAT-3D,2013-038B,2026-07-15T01:22:51.790368,1.00268525,.0000514,1.9959,82.1872,82.9328,278.0034,0,U,39216,999,4736,0,-.35E-5,0
FENGYUN 3C,2013-052A,2026-07-15T04:07:23.881152,14.15760768,.0013669,98.4998,168.7645,306.0538,53.9370,0,U,39260,999,66252,.34451E-4,.26E-6,0
METEOR-M 2,2014-037A,2026-07-15T05:32:50.762976,14.21469180,.0005189,98.5125,170.9788,327.2318,32.8538,0,U,40069,999,62330,.37261E-5,-.34E-6,0
HIMAWARI-8,2014-060A,2026-07-15T03:17:38.724864,1.00271457,.0001082,0.0168,0.9708,168.4507,313.6467,0,U,40267,999,4304,0,-.285E-5,0
FENGYUN 2G,2014-090A,2026-07-14T17:53:29.302656,1.00281192,.00041209,5.7061,72.4807,171.8392,55.9516,0,U,40367,999,4227,0,-.314E-5,0
METEOSAT-11 (MSG-4),2015-034A,2026-07-15T03:08:54.060000,1.00271840,.0002175,3.2689,70.9328,354.2848,284.2389,0,U,40732,999,749,0,.5E-6,0
ELEKTRO-L 2,2015-074A,2026-07-14T09:55:32.085120,1.00272099,.00010268,6.7595,70.1832,212.6794,143.7919,0,U,41105,999,3877,0,-.129E-5,0
SENTINEL-3A,2016-011A,2026-07-15T04:45:39.732192,14.26739765,.000136,98.6238,263.1778,89.8744,270.2592,0,U,41335,999,54205,.36608E-4,.45E-6,0
INSAT-3DR,2016-054A,2026-07-15T03:37:21.646272,1.00270679,.001059,0.0698,88.7059,181.2179,151.4138,0,U,41752,999,3609,0,-.86E-6,0
HIMAWARI-9,2016-064A,2026-07-14T14:05:07.738368,1.00265737,.0002288,0.0126,316.2514,222.2337,105.9965,0,U,41836,999,3548,0,0,0
GOES 16,2016-071A,2026-07-15T02:36:23.235264,1.00270970,.0000535,0.4037,85.4673,95.8659,46.0287,0,U,41866,999,3538,0,-.1E-5,0
FENGYUN 4A,2016-077A,2026-07-15T05:24:13.044672,1.00268085,.000851,2.3910,79.9549,159.4801,258.4394,0,U,41882,999,3521,0,-.368E-5,0
CYGFM05,2016-078A,2026-07-15T00:02:07.686240,15.57848970,.0005984,34.9570,76.2379,34.9724,325.1393,0,U,41884,999,53309,.20713E-3,.15947E-3,0
CYGFM04,2016-078B,2026-07-14T22:42:37.257984,15.63068933,.0004193,34.9325,42.8477,81.5025,278.6176,0,U,41885,999,53334,.22412E-3,.21116E-3,0
CYGFM02,2016-078C,2026-07-14T22:55:21.924768,15.66346904,.000493,34.9406,36.4732,85.6984,274.4306,0,U,41886,999,53352,.23666E-3,.25439E-3,0
CYGFM01,2016-078D,2026-07-15T01:00:06.666048,15.58569035,.0005961,34.9399,76.7962,28.3494,331.7554,0,U,41887,999,53305,.21273E-3,.16835E-3,0
CYGFM08,2016-078E,2026-07-15T00:22:31.516320,15.61449181,.0006202,34.9431,55.7875,66.5859,293.5518,0,U,41888,999,53332,.22395E-3,.1981E-3,0
CYGFM07,2016-078G,2026-07-14T23:21:04.416192,15.61556148,.0004617,34.9447,44.3887,82.5772,277.5478,0,U,41890,999,53334,.22466E-3,.19947E-3,0
CYGFM03,2016-078H,2026-07-15T00:11:39.072768,15.61544521,.0004527,34.9402,46.0839,64.7059,295.4135,0,U,41891,999,53332,.22248E-3,.19744E-3,0
