DMSP 5D-3 F16 (USA 172) 
1 28054U 03048A   26196.18146836 -.00000053  00000+0 -40141-5 0  9999
2 28054  98.9897 220.1940 0008092  71.1866  16.5134 14.14484823173445
METEOSAT-9 (MSG-2)      
1 28912U 05049B   26195.96104627  .00000110  00000+0  00000+0 0  9998
2 28912   9.4224  53.8894 0002163 356.2461 274.3154  1.00271858  7275
DMSP 5D-3 F17 (USA 191) 
1 29522U 06050A   26196.17132859 -.00000031  00000+0  66506-5 0  9993
2 29522  98.7387 202.1696 0009717 342.9585  17.1261 14.14996220 16384
FENGYUN 3A              
1 32958U 08026A   26195.81778755  .00000018  00000+0  29304-4 0  9994
2 32958  98.6887 136.1349 0009673  52.8286 307.3772 14.19576476939323
GOES 14                 
1 35491U 09033A   26195.95642271 -.00000368  00000+0  00000+0 0  9992
2 35491   1.7592  82.6948 0001898  40.4291 279.2189  1.00098148  6860
DMSP 5D-3 F18 (USA 210) 
1 35951U 09057A   26196.21518498  .00000154  00000+0  10261-3 0  9998
2 35951  98.9056 176.9259 0011228 165.4088 194.7411 14.14911595863551
EWS-G2 (GOES 15)        
1 36411U 10008A   26196.19608332  .00000012  00000+0  00000+0 0  9991
2 36411   1.3526  82.4596 0005237  54.0479 290.4397  1.00268546 59914
COMS 1                  
1 36744U 10032A   26196.05061450 -.00000257  00000+0  00000+0 0  9998
2 36744   4.8746  75.0193 0011292  14.6864 184.0547  0.99167988 51365
FENGYUN 3B              
1 37214U 10059A   26196.24120700 -.00000207  00000+0 -83550-4 0  9997
2 37214  98.9610 242.3723 0023171 106.3805 333.1828 14.14846512811398
SUOMI NPP               
1 37849U 11061A   26196.18248719 -.00000002  00000+0  19901-4 0  9990
2 37849  98.7956 136.8682 0000745 213.9978 146.1150 14.19522541762418
METEOSAT-10 (MSG-3)     
1 38552U 12035B   26195.91503117 -.00000019  00000+0  00000+0 0  9993
2 38552   4.7354  60.8821 0001139  16.6212 184.7243  1.00270754 51130
METOP-B                 
1 38771U 12049A   26196.13479097  .00000048  00000+0  41827-4 0  9993
2 38771  98.6490 247.0743 0001087 255.8699 104.2358 14.21446389717236
INSAT-3D                
1 39216U 13038B   26196.05754387 -.00000350  00000+0  00000+0 0  9996
2 39216   1.9959  82.1872 0000514  82.9328 278.0034  1.00268525 47369
FENGYUN 3C              
1 39260U 13052A   26196.17180418  .00000026  00000+0  34451-4 0  9993
2 39260  98.4998 168.7645 0013669 306.0538  53.9370 14.15760768662529
METEOR-M 2              
1 40069U 14037A   26196.23114309 -.00000034  00000+0  37261-5 0  9992
2 40069  98.5125 170.9788 0005189 327.2318  32.8538 14.21469180623309
HIMAWARI-8              
1 40267U 14060A   26196.13725376 -.00000285  00000+0  00000+0 0  9992
2 40267   0.0168   0.9708 0001082 168.4507 313.6467  1.00271457 43040
FENGYUN 2G              
1 40367U 14090A   26195.74547804 -.00000314  00000+0  00000+0 0  9993
2 40367   5.7061  72.4807 0004120 171.8392  55.9516  1.00281192 42277
METEOSAT-11 (MSG-4)     
1 40732U 15034A   26196.13118125  .00000050  00000+0  00000+0 0  9998
2 40732   3.2689  70.9328 0002175 354.2848 284.2389  1.00271840  7493
ELEKTRO-L 2             
1 41105U 15074A   26195.41356580 -.00000129  00000+0  00000+0 0  9994
2 41105   6.7595  70.1832 0001026 212.6794 143.7919  1.00272099 38775
SENTINEL-3A             
1 41335U 16011A   26196.19837653  .00000045  00000+0  36608-4 0  9996
2 41335  98.6238 263.1778 0001360  89.8744 270.2592 14.26739765542051
INSAT-3DR               
1 41752U 16054A   26196.15094498 -.00000086  00000+0  00000+0 0  9992
2 41752   0.0698  88.7059 0010590 181.2179 151.4138  1.00270679 36098
HIMAWARI-9              
1 41836U 16064A   26195.58689512  .00000000  00000+0  00000+0 0  9994
2 41836   0.0126 316.2514 0002288 222.2337 105.9965  1.00265737 35482
GOES 16                 
1 41866U 16071A   26196.10860226 -.00000100  00000+0  00000+0 0  9999
2 41866   0.4037  85.4673 0000535  95.8659  46.0287  1.00270970 35381
FENGYUN 4A              
1 41882U 16077A   26196.22515098 -.00000368  00000+0  00000+0 0  9996
2 41882   2.3910  79.9549 0008510 159.4801 258.4394  1.00268085 35211
CYGFM05                 
1 41884U 16078A   26196.00147785  .00015947  00000+0  20713-3 0  9994
2 41884  34.9570  76.2379 0005984  34.9724 325.1393 15.57848970533094
CYGFM04                 
1 41885U 16078B   26195.94626456  .00021116  00000+0  22412-3 0  9997
2 41885  34.9325  42.8477 0004193  81.5025 278.6176 15.63068933533343
CYGFM02                 
1 41886U 16078C   26195.95511487  .00025439  00000+0  23666-3 0  9990
2 41886  34.9406  36.4732 0004930  85.6984 274.4306 15.66346904533524
CYGFM01                 
1 41887U 16078D   26196.04174382  .00016835  00000+0  21273-3 0  9993
2 41887  34.9399  76.7962 0005961  28.3494 331.7554 15.58569035533056
CYGFM08                 
1 41888U 16078E   26196.01564255  .00019810  00000+0  22395-3 0  9995
2 41888  34.9431  55.7875 0006202  66.5859 293.5518 15.61449181533320
CYGFM07                 
1 41890U 16078G   26195.97296778  .00019947  00000+0  22466-3 0  9994
2 41890  34.9447  44.3887 0004617  82.5772 277.5478 15.61556148533348
CYGFM03                 
1 41891U 16078H   26196.00809112  .00019744  00000+0  22248-3 0  9995
2 41891  34.9402  46.0839 0004527  64.7059 295.4135 15.61544521533325
